STARLINK-6127           
1 57135U 23090AL  25174.83979500  .00000133  00000+0  24893-4 0  9991
2 57135  43.0032 228.3154 0001384 270.3172  89.7512 15.02534836111437
STARLINK-6112           
1 57136U 23090AM  25174.86088629 -.00000220  00000+0 -11890-5 0  9991
2 57136  43.0026 228.4792 0001364 273.1002  86.9684 15.02534380111456
STARLINK-5347           
1 57137U 23090AN  25174.84756660 -.00000343  00000+0 -10294-4 0  9999
2 57137  43.0039 228.3752 0001494 271.8933  88.1738 15.02533504111437
STARLINK-5336           
1 57138U 23090AP  25174.85977527  .00000047  00000+0  18519-4 0  9995
2 57138  43.0024 228.4694 0001164 273.4764  86.5945 15.02534750111438
STARLINK-5355           
1 57139U 23090AQ  25174.84312431  .00000275  00000+0  35445-4 0  9992
2 57139  43.0029 228.3443 0001373 271.8621  88.2065 15.02533804111432
STARLINK-5357           
1 57141U 23090AS  25174.43871271  .00000597  00000+0  59260-4 0  9990
2 57141  43.0030 230.4678 0001641 270.3982  89.6672 15.02539279111377
STARLINK-5361           
1 57142U 23090AT  25174.83314122  .00000157  00000+0  26675-4 0  9998
2 57142  43.0026 228.2632 0001473 278.1676  81.8999 15.02530287111430
STARLINK-5358           
1 57143U 23090AU  25174.82980747  .00000013  00000+0  16044-4 0  9990
2 57143  43.0029 228.2422 0001709 274.4632  85.6015 15.02533553111434
STARLINK-5150           
1 57144U 23090AV  25173.51135313 -.00000333  00000+0 -95640-5 0  9994
2 57144  43.0026 235.5459 0001490 269.7027  90.3645 15.02532582111236
STARLINK-5768           
1 57145U 23090AW  25174.42206413  .00000256  00000+0  34005-4 0  9995
2 57145  43.0033 230.3414 0001485 271.4243  88.6429 15.02534304111372
STARLINK-5791           
1 57146U 23090AX  25174.82758742  .00000676  00000+0  65099-4 0  9990
2 57146  43.0031 228.2220 0001469 274.2926  85.7749 15.02535681111432
STARLINK-5765           
1 57147U 23090AY  25174.41761909  .00000194  00000+0  29411-4 0  9998
2 57147  43.0027 230.3049 0001255 278.1132  81.9568 15.02536712111563
STARLINK-5788           
1 57148U 23090AZ  25174.87632246 -.00000196  00000+0  59476-6 0  9999
2 57148  43.0027 227.7307 0001465 273.2880  86.7795 15.02526731111442
STARLINK-5778           
1 57149U 23090BA  25174.76383656  .00000678  00000+0  65295-4 0  9994
2 57149  43.0031 202.5601 0001486 281.6180  78.4495 15.02537866111913
STARLINK-5780           
1 57150U 23090BB  25174.55834498 -.00000328  00000+0 -91836-5 0  9993
2 57150  43.0030 229.6447 0001414 272.5412  87.5269 15.02539628110445
STARLINK-5776           
1 57151U 23090BC  25174.49075649 -.00000193  00000+0  75189-6 0  9995
2 57151  43.0014 229.9955 0001282 273.9023  86.1672 15.02537533111572
STARLINK-6164           
1 57152U 23090BD  25174.42762123 -.00001272  00000+0 -79141-4 0  9999
2 57152  43.0033 230.3850 0001458 280.0098  80.0580 15.02526036111566
STARLINK-5879           
1 57153U 23090BE  25174.51765138  .00000005  00000+0  15460-4 0  9994
2 57153  43.0030 217.1782 0001393 275.7894  84.2789 15.02538207111227
STARLINK-6106           
1 57154U 23090BF  25174.61816068  .00000345  00000+0  40644-4 0  9994
2 57154  43.0030 229.2320 0001341 273.1954  86.8735 15.02538151111599
STARLINK-6108           
1 57155U 23090BG  25174.86964654  .00000064  00000+0  19813-4 0  9999
2 57155  43.0028 227.6788 0001165 272.4615  87.6094 15.02537161110492
STARLINK-6137           
1 57156U 23090BH  25174.87298264  .00000745  00000+0  70259-4 0  9995
2 57156  43.0028 227.7025 0001514 273.7944  86.2725 15.02533474111631
STARLINK-5525           
1 57218U 23094A   25174.88028961 -.00000088  00000+0  85592-5 0  9992
2 57218  43.0048 357.0309 0001275 269.0156  91.0540 15.02533556108187
STARLINK-5520           
1 57219U 23094B   25174.87695792  .00000188  00000+0  28996-4 0  9998
2 57219  43.0049 357.0092 0001495 256.4736 103.5940 15.02535232108182
STARLINK-5880           
1 57220U 23094C   25174.79494144 -.00000133  00000+0  52220-5 0  9998
2 57220  43.0049 357.2494 0001247 265.1509  94.9191 15.02533231108179
STARLINK-5875           
1 57221U 23094D   25174.80826108  .00000228  00000+0  31929-4 0  9996
2 57221  43.0042 357.3528 0001356 268.5668  91.5019 15.02533153108171
STARLINK-5870           
1 57222U 23094E   25174.86807919  .00000109  00000+0  23119-4 0  9992
2 57222  43.0050 356.9401 0001367 267.5921  92.4765 15.02533664108422
STARLINK-5519           
1 57223U 23094F   25174.53901832 -.00000148  00000+0  40834-5 0  9994
2 57223  43.0038 358.7684 0000888 256.0738 104.0006 15.02537772108318
STARLINK-5983           
1 57224U 23094G   25174.86474869 -.00000302  00000+0 -72641-5 0  9990
2 57224  43.0054 356.9148 0001349 267.1565  92.9123 15.02534916108363
STARLINK-6294           
1 57225U 23094H   25174.80715154  .00000031  00000+0  17413-4 0  9992
2 57225  43.0056 357.3366 0001680 274.7486  85.3164 15.02536895108175
STARLINK-6350           
1 57226U 23094J   25174.92012886 -.00000275  00000+0 -52928-5 0  9991
2 57226  43.0059 356.4677 0001345 267.3860  92.6829 15.02531977108193
STARLINK-5996           
1 57227U 23094K   25174.92457076 -.00000473  00000+0 -19953-4 0  9996
2 57227  43.0052 356.5028 0001420 269.1880  90.8799 15.02532632108199
STARLINK-6230           
1 57228U 23094L   25174.91679850 -.00000146  00000+0  42742-5 0  9991
2 57228  43.0045 356.4436 0001358 270.1891  89.8795 15.02533951108197
STARLINK-6233           
1 57229U 23094M   25174.92345770 -.00000106  00000+0  72520-5 0  9997
2 57229  43.0050 356.4921 0001378 266.8999  93.1685 15.02533685108196
STARLINK-6250           
1 57230U 23094N   25174.91124864  .00000393  00000+0  44193-4 0  9998
2 57230  43.0046 356.4004 0001119 269.3882  90.6832 15.02534593108192
STARLINK-5840           
1 57231U 23094P   25174.55555019 -.00000315  00000+0 -82798-5 0  9999
2 57231  43.0048 358.0311 0001228 277.3320  82.7383 15.02534732108144
STARLINK-5872           
1 57232U 23094Q   25174.55443957  .00000283  00000+0  36054-4 0  9992
2 57232  43.0051 358.0193 0001223 270.8952  89.1750 15.02534778108386
STARLINK-5866           
1 57233U 23094R   25174.56220989  .00000001  00000+0  15151-4 0  9995
2 57233  43.0024 358.0826 0001010 255.1578 104.9152 15.02536103108144
STARLINK-6368           
1 57234U 23094S   25174.48574190 -.00000185  00000+0  13737-5 0  9996
2 57234  43.0038 358.3648 0001261 274.0344  86.0354 15.02539419108130
STARLINK-6360           
1 57235U 23094T   25174.56442930  .00000314  00000+0  38325-4 0  9994
2 57235  43.0050 358.0989 0001313 267.8150  92.2542 15.02534953108140
STARLINK-6315           
1 57236U 23094U   25174.75869022 -.00000447  00000+0 -18018-4 0  9997
2 57236  43.0056 344.8361 0001300 267.1574  92.9119 15.02533225108310
STARLINK-6365           
1 57237U 23094V   25174.49240203  .00000080  00000+0  20976-4 0  9990
2 57237  43.0037 358.4194 0001368 275.1425  84.9261 15.02534718108130
STARLINK-6334           
1 57238U 23094W   25173.82022716  .00000178  00000+0  28254-4 0  9999
2 57238  43.0051 349.8300 0001369 269.3811  90.6875 15.02536427108353
STARLINK-6330           
1 57239U 23094X   25174.48462950  .00000440  00000+0  47647-4 0  9990
2 57239  43.0042 358.3605 0001244 266.6060  93.4640 15.02534286108133
STARLINK-6351           
1 57240U 23094Y   25174.74203040 -.00004852  00000+0 -34424-3 0  9995
2 57240  43.0073 344.7098 0001467 289.8679  70.2005 15.02548380108312
STARLINK-6349           
1 57241U 23094Z   25174.48944903 -.00000111  00000+0  68345-5 0  9991
2 57241  43.0040 346.2562 0001241 265.2735  94.7966 15.02534300108270
STARLINK-6306           
1 57242U 23094AA  25174.75202531  .00000005  00000+0  15456-4 0  9991
2 57242  43.0046 344.7821 0001053 266.7252  93.3470 15.02539095108315
STARLINK-6346           
1 57243U 23094AB  25174.75425478 -.00000998  00000+0 -58800-4 0  9992
2 57243  43.0054 344.8007 0001449 278.7253  81.3425 15.02541253108311
STARLINK-5610           
1 57244U 23094AC  25174.74425787  .00000372  00000+0  42584-4 0  9991
2 57244  43.0047 344.7244 0001280 265.2977  94.7719 15.02533522108317
STARLINK-5587           
1 57245U 23094AD  25174.74759172 -.00000168  00000+0  25959-5 0  9992
2 57245  43.0041 344.7483 0001033 266.7410  93.3314 15.02532154108317
STARLINK-5049           
1 57246U 23094AE  25174.85168636  .00000608  00000+0  60062-4 0  9995
2 57246  43.0046 343.8060 0001206 270.4533  89.6171 15.02536277108335
STARLINK-5039           
1 57247U 23094AF  25174.54149334  .00000063  00000+0  19713-4 0  9998
2 57247  43.0046 345.7810 0001211 268.6832  91.3872 15.02535835108288
STARLINK-5514           
1 57248U 23094AG  25174.73760010  .00000082  00000+0  21168-4 0  9998
2 57248  43.0054 344.6727 0001392 269.8470  90.2213 15.02533960108312
STARLINK-5517           
1 57249U 23094AH  25174.73536256 -.00003983  00000+0 -27981-3 0  9995
2 57249  43.0051 344.6007 0001152 261.9489  98.1222 15.02550608108313
STARLINK-5488           
1 57250U 23094AJ  25174.85834659 -.00000147  00000+0  42097-5 0  9993
2 57250  43.0054 343.8570 0001412 268.2849  91.7832 15.02534644108333
STARLINK-5513           
1 57251U 23094AK  25174.73204807  .00000087  00000+0  21509-4 0  9993
2 57251  43.0054 344.6297 0001452 266.3529  93.7148 15.02535686108314
STARLINK-5511           
1 57252U 23094AL  25174.85057919 -.00001073  00000+0 -64364-4 0  9991
2 57252  43.0052 343.8017 0001325 269.8870  90.1821 15.02538255108336
STARLINK-5516           
1 57253U 23094AM  25174.46502751  .00000761  00000+0  71403-4 0  9991
2 57253  43.0049 346.0675 0001285 271.8637  88.2058 15.02533627108278
STARLINK-5490           
1 57254U 23094AN  25174.77855113  .00000170  00000+0  27672-4 0  9992
2 57254  43.0051 344.1204 0001271 266.1532  93.9165 15.02531160108323
STARLINK-5481           
1 57255U 23094AP  25174.78076512  .00000021  00000+0  16598-4 0  9992
2 57255  43.0030 344.1374 0001008 267.6888  92.3839 15.02538267108323
